[{"OBJECT_NAME":"STARLINK-1458","OBJECT_ID":"2020-035U","EPOCH":"2026-03-09T08:30:04.028256","MEAN_MOTION":15.43164244,"ECCENTRICITY":0.00069021,"INCLINATION":53.0533,"RA_OF_ASC_NODE":57.0913,"ARG_OF_PERICENTER":77.6048,"MEAN_ANOMALY":282.5729,"EPHEMERIS_TYPE":0,"CLASSIFICATION_TYPE":"U","NORAD_CAT_ID":45675,"ELEMENT_SET_NO":999,"REV_AT_EPOCH":31880,"BSTAR":0.001001866,"MEAN_MOTION_DOT":0.00044975,"MEAN_MOTION_DDOT":0},{"OBJECT_NAME":"STARLINK-36617","OBJECT_ID":"2026-020T","EPOCH":"2026-03-09T22:00:01.999584","MEAN_MOTION":15.57952197,"ECCENTRICITY":0.00017004,"INCLINATION":42.9998,"RA_OF_ASC_NODE":140.4898,"ARG_OF_PERICENTER":280.4794,"MEAN_ANOMALY":139.9373,"EPHEMERIS_TYPE":0,"CLASSIFICATION_TYPE":"U","NORAD_CAT_ID":67634,"ELEMENT_SET_NO":999,"REV_AT_EPOCH":593,"BSTAR":-0.028244508,"MEAN_MOTION_DOT":-0.01915394,"MEAN_MOTION_DDOT":0}]
